{"type": "FeatureCollection", "features": [ {"type": "Feature", "properties": {"norad_id": 35165, "name": "FENGYUN 1C DEB", "group": "fengyun-1c-debris", "lat": 56.92499026298697, "lon": 60.70238145539635, "alt_km": 758.9977193697723, "timestamp": "2025-12-08T19:31:49.095672+00:00", "meta": {"OBJECT_NAME": "FENGYUN 1C DEB", "OBJECT_ID": "1999-025DMV", "EPOCH": "2025-11-30T05:14:00.190464", "MEAN_MOTION": 14.33570134, "ECCENTRICITY": 0.00218891, "INCLINATION": 98.8778, "RA_OF_ASC_NODE": 65.7738, "ARG_OF_PERICENTER": 100.7376, "MEAN_ANOMALY": 259.6273, "EPHEMERIS_TYPE": 0, "CLASSIFICATION_TYPE": "U", "NORAD_CAT_ID": 35165, "ELEMENT_SET_NO": 999, "REV_AT_EPOCH": 89541, "BSTAR": 0.0024382815, "MEAN_MOTION_DOT": 6.727e-05, "MEAN_MOTION_DDOT": 0}, "tle": {"line1": "1 35165U 99025DMV 25334.21805776  .00006727  00000+0  24383-2 0  9991", "line2": "2 35165  98.8778  65.7738 0021889 100.7376 259.6273 14.33570134895419"}}, "geometry": {"type": "Point", "coordinates": [60.70238145539635, 56.92499026298697]}}, {"type": "Feature", "properties": {"norad_id": 35167, "name": "FENGYUN 1C DEB", "group": "fengyun-1c-debris", "lat": -39.67963409724852, "lon": 149.03478405814423, "alt_km": 630.6037765921128, "timestamp": "2025-12-08T19:31:49.095681+00:00", "meta": {"OBJECT_NAME": "FENGYUN 1C DEB", "OBJECT_ID": "1999-025DMX", "EPOCH": "2025-12-07T17:19:43.690944", "MEAN_MOTION": 14.31135302, "ECCENTRICITY": 0.02291404, "INCLINATION": 98.4486, "RA_OF_ASC_NODE": 335.0551, "ARG_OF_PERICENTER": 219.0202, "MEAN_ANOMALY": 139.4257, "EPHEMERIS_TYPE": 0, "CLASSIFICATION_TYPE": "U", "NORAD_CAT_ID": 35167, "ELEMENT_SET_NO": 999, "REV_AT_EPOCH": 69948, "BSTAR": 0.00080617293, "MEAN_MOTION_DOT": 2.787e-05, "MEAN_MOTION_DDOT": 0}, "tle": {"line1": "1 35167U 99025DMX 25341.72203346  .00002787  00000+0  80617-3 0  9997", "line2": "2 35167  98.4486 335.0551 0229140 219.0202 139.4257 14.31135302699489"}}, "geometry": {"type": "Point", "coordinates": [149.03478405814423, -39.67963409724852]}}, {"type": "Feature", "properties": {"norad_id": 35169, "name": "FENGYUN 1C DEB", "group": "fengyun-1c-debris", "lat": -60.60850103429302, "lon": 29.407008546002054, "alt_km": 761.2818281806658, "timestamp": "2025-12-08T19:31:49.095690+00:00", "meta": {"OBJECT_NAME": "FENGYUN 1C DEB", "OBJECT_ID": "1999-025DMZ", "EPOCH": "2025-12-05T11:24:48.463488", "MEAN_MOTION": 14.58604827, "ECCENTRICITY": 0.01525013, "INCLINATION": 99.1294, "RA_OF_ASC_NODE": 222.329, "ARG_OF_PERICENTER": 129.6073, "MEAN_ANOMALY": 231.8702, "EPHEMERIS_TYPE": 0, "CLASSIFICATION_TYPE": "U", "NORAD_CAT_ID": 35169, "ELEMENT_SET_NO": 999, "REV_AT_EPOCH": 65674, "BSTAR": 0.00095565714, "MEAN_MOTION_DOT": 5.168e-05, "MEAN_MOTION_DDOT": 0}, "tle": {"line1": "1 35169U 99025DMZ 25339.47556092  .00005168  00000+0  95566-3 0  9992", "line2": "2 35169  99.1294 222.3290 0152501 129.6073 231.8702 14.58604827656748"}}, "geometry": {"type": "Point", "coordinates": [29.407008546002054, -60.60850103429302]}}, {"type": "Feature", "properties": {"norad_id": 35171, "name": "FENGYUN 1C DEB", "group": "fengyun-1c-debris", "lat": 54.20763623585762, "lon": -33.02133845921533, "alt_km": 997.0214065266282, "timestamp": "2025-12-08T19:31:49.095699+00:00", "meta": {"OBJECT_NAME": "FENGYUN 1C DEB", "OBJECT_ID": "1999-025DNB", "EPOCH": "2025-12-08T03:26:27.705408", "MEAN_MOTION": 13.94933429, "ECCENTRICITY": 0.0137703, "INCLINATION": 99.0089, "RA_OF_ASC_NODE": 133.6135, "ARG_OF_PERICENTER": 331.4453, "MEAN_ANOMALY": 27.9215, "EPHEMERIS_TYPE": 0, "CLASSIFICATION_TYPE": "U", "NORAD_CAT_ID": 35171, "ELEMENT_SET_NO": 999, "REV_AT_EPOCH": 88494, "BSTAR": 0.0023032301, "MEAN_MOTION_DOT": 3.308e-05, "MEAN_MOTION_DDOT": 0}, "tle": {"line1": "1 35171U 99025DNB 25342.14337622  .00003308  00000+0  23032-2 0  9991", "line2": "2 35171  99.0089 133.6135 0137703 331.4453  27.9215 13.94933429884946"}}, "geometry": {"type": "Point", "coordinates": [-33.02133845921533, 54.20763623585762]}}, {"type": "Feature", "properties": {"norad_id": 35173, "name": "FENGYUN 1C DEB", "group": "fengyun-1c-debris", "lat": 6.612826505220509, "lon": -124.36231954031818, "alt_km": 874.4905343064847, "timestamp": "2025-12-08T19:31:49.095708+00:00", "meta": {"OBJECT_NAME": "FENGYUN 1C DEB", "OBJECT_ID": "1999-025DND", "EPOCH": "2025-12-06T00:11:15.437184", "MEAN_MOTION": 13.37277281, "ECCENTRICITY": 0.04906763, "INCLINATION": 99.7871, "RA_OF_ASC_NODE": 51.7832, "ARG_OF_PERICENTER": 229.9973, "MEAN_ANOMALY": 125.7105, "EPHEMERIS_TYPE": 0, "CLASSIFICATION_TYPE": "U", "NORAD_CAT_ID": 35173, "ELEMENT_SET_NO": 999, "REV_AT_EPOCH": 65739, "BSTAR": 0.0040782912, "MEAN_MOTION_DOT": 4.225e-05, "MEAN_MOTION_DDOT": 0}, "tle": {"line1": "1 35173U 99025DND 25340.00781756  .00004225  00000+0  40783-2 0  9998", "line2": "2 35173  99.7871  51.7832 0490676 229.9973 125.7105 13.37277281657393"}}, "geometry": {"type": "Point", "coordinates": [-124.36231954031818, 6.612826505220509]}}, {"type": "Feature", "properties": {"norad_id": 35174, "name": "FENGYUN 1C DEB", "group": "fengyun-1c-debris", "lat": -73.78843264967763, "lon": 103.63194244113622, "alt_km": 524.7912867953019, "timestamp": "2025-12-08T19:31:49.095717+00:00", "meta": {"OBJECT_NAME": "FENGYUN 1C DEB", "OBJECT_ID": "1999-025DNE", "EPOCH": "2025-11-20T15:53:09.659040", "MEAN_MOTION": 14.97261972, "ECCENTRICITY": 0.01569814, "INCLINATION": 98.9653, "RA_OF_ASC_NODE": 295.6935, "ARG_OF_PERICENTER": 254.7539, "MEAN_ANOMALY": 103.6277, "EPHEMERIS_TYPE": 0, "CLASSIFICATION_TYPE": "U", "NORAD_CAT_ID": 35174, "ELEMENT_SET_NO": 999, "REV_AT_EPOCH": 89835, "BSTAR": 0.0019136785, "MEAN_MOTION_DOT": 0.00028569, "MEAN_MOTION_DDOT": 0}, "tle": {"line1": "1 35174U 99025DNE 25324.66191735  .00028569  00000+0  19137-2 0  9991", "line2": "2 35174  98.9653 295.6935 0156981 254.7539 103.6277 14.97261972898353"}}, "geometry": {"type": "Point", "coordinates": [103.63194244113622, -73.78843264967763]}}, {"type": "Feature", "properties": {"norad_id": 35175, "name": "FENGYUN 1C DEB", "group": "fengyun-1c-debris", "lat": 74.3113315811161, "lon": -41.21951201357586, "alt_km": 847.5562259883636, "timestamp": "2025-12-08T19:31:49.095727+00:00", "meta": {"OBJECT_NAME": "FENGYUN 1C DEB", "OBJECT_ID": "1999-025DNF", "EPOCH": "2025-12-07T17:49:32.813760", "MEAN_MOTION": 14.2129013, "ECCENTRICITY": 0.00571803, "INCLINATION": 98.5747, "RA_OF_ASC_NODE": 350.2325, "ARG_OF_PERICENTER": 294.8485, "MEAN_ANOMALY": 64.6753, "EPHEMERIS_TYPE": 0, "CLASSIFICATION_TYPE": "U", "NORAD_CAT_ID": 35175, "ELEMENT_SET_NO": 999, "REV_AT_EPOCH": 61164, "BSTAR": 0.00067844318, "MEAN_MOTION_DOT": 1.46e-05, "MEAN_MOTION_DDOT": 0}, "tle": {"line1": "1 35175U 99025DNF 25341.74274090  .00001460  00000+0  67844-3 0  9996", "line2": "2 35175  98.5747 350.2325 0057180 294.8485  64.6753 14.21290130611646"}}, "geometry": {"type": "Point", "coordinates": [-41.21951201357586, 74.3113315811161]}}, {"type": "Feature", "properties": {"norad_id": 35176, "name": "FENGYUN 1C DEB", "group": "fengyun-1c-debris", "lat": 22.860120528293272, "lon": 153.36724110771402, "alt_km": 834.2916616906768, "timestamp": "2025-12-08T19:31:49.095736+00:00", "meta": {"OBJECT_NAME": "FENGYUN 1C DEB", "OBJECT_ID": "1999-025DNG", "EPOCH": "2025-12-07T05:30:55.334304", "MEAN_MOTION": 14.16982341, "ECCENTRICITY": 0.00547007, "INCLINATION": 98.5553, "RA_OF_ASC_NODE": 328.2048, "ARG_OF_PERICENTER": 72.2006, "MEAN_ANOMALY": 288.5127, "EPHEMERIS_TYPE": 0, "CLASSIFICATION_TYPE": "U", "NORAD_CAT_ID": 35176, "ELEMENT_SET_NO": 999, "REV_AT_EPOCH": 90850, "BSTAR": 0.0005910593, "MEAN_MOTION_DOT": 1.163e-05, "MEAN_MOTION_DDOT": 0}, "tle": {"line1": "1 35176U 99025DNG 25341.22980711  .00001163  00000+0  59106-3 0  9996", "line2": "2 35176  98.5553 328.2048 0054700  72.2006 288.5127 14.16982341908503"}}, "geometry": {"type": "Point", "coordinates": [153.36724110771402, 22.860120528293272]}}, {"type": "Feature", "properties": {"norad_id": 35191, "name": "FENGYUN 1C DEB", "group": "fengyun-1c-debris", "lat": -79.09357644563633, "lon": 20.30403236017114, "alt_km": 890.1880191272585, "timestamp": "2025-12-08T19:31:49.095745+00:00", "meta": {"OBJECT_NAME": "FENGYUN 1C DEB", "OBJECT_ID": "1999-025DNX", "EPOCH": "2025-12-08T04:23:56.923872", "MEAN_MOTION": 13.91200185, "ECCENTRICITY": 0.01020753, "INCLINATION": 99.0152, "RA_OF_ASC_NODE": 324.2143, "ARG_OF_PERICENTER": 221.2669, "MEAN_ANOMALY": 138.0743, "EPHEMERIS_TYPE": 0, "CLASSIFICATION_TYPE": "U", "NORAD_CAT_ID": 35191, "ELEMENT_SET_NO": 999, "REV_AT_EPOCH": 87838, "BSTAR": 0.00028240646, "MEAN_MOTION_DOT": 3.28e-06, "MEAN_MOTION_DDOT": 0}, "tle": {"line1": "1 35191U 99025DNX 25342.18329773  .00000328  00000+0  28241-3 0  9992", "line2": "2 35191  99.0152 324.2143 0102075 221.2669 138.0743 13.91200185878389"}}, "geometry": {"type": "Point", "coordinates": [20.30403236017114, -79.09357644563633]}}, {"type": "Feature", "properties": {"norad_id": 35194, "name": "FENGYUN 1C DEB", "group": "fengyun-1c-debris", "lat": -71.87495400974476, "lon": 94.6062308129236, "alt_km": 776.9096964109485, "timestamp": "2025-12-08T19:31:49.095755+00:00", "meta": {"OBJECT_NAME": "FENGYUN 1C DEB", "OBJECT_ID": "1999-025DPA", "EPOCH": "2025-12-03T11:35:48.411744", "MEAN_MOTION": 14.6015503, "ECCENTRICITY": 0.01150514, "INCLINATION": 98.9499, "RA_OF_ASC_NODE": 60.0738, "ARG_OF_PERICENTER": 104.0721, "MEAN_ANOMALY": 257.3297, "EPHEMERIS_TYPE": 0, "CLASSIFICATION_TYPE": "U", "NORAD_CAT_ID": 35194, "ELEMENT_SET_NO": 999, "REV_AT_EPOCH": 65255, "BSTAR": 0.0013414517, "MEAN_MOTION_DOT": 7.036e-05, "MEAN_MOTION_DDOT": 0}, "tle": {"line1": "1 35194U 99025DPA 25337.48319921  .00007036  00000+0  13415-2 0  9995", "line2": "2 35194  98.9499  60.0738 0115051 104.0721 257.3297 14.60155030652557"}}, "geometry": {"type": "Point", "coordinates": [94.6062308129236, -71.87495400974476]}}]}